STARLINK-36645          
1 67707U 26025Q   26063.75372542  .00611644  00000+0  37824-2 0  9991
2 67707  97.2861 175.0961 0002031  63.4012 296.7461 15.75390672  5165
STARLINK-36287          
1 67708U 26025R   26063.78200259 -.00766897  00000+0 -47459-2 0  9998
2 67708  97.2855 175.2108 0005682 178.6058 181.5226 15.78941731  5181
STARLINK-36698          
1 67709U 26025S   26063.71146942 -.00313975  00000+0 -17500-2 0  9999
2 67709  97.2854 175.1529 0002947  57.7017 302.4536 15.80145142  5161
STARLINK-36344          
1 67710U 26025T   26063.83336806  .00066154  00000+0  44134-3 0  9990
2 67710  97.2856 175.2465 0001308 109.5426 139.9181 15.75170455  5231
STARLINK-36687          
1 67711U 26025U   26063.27055094  .00305453  00000+0  15305-2 0  9991
2 67711  97.2852 174.6803 0001079  86.8013 273.3379 15.80954168  5106
STARLINK-36705          
1 67712U 26025V   26063.67042351  .00223930  00000+0  14619-2 0  9994
2 67712  97.2864 175.0514 0001209  20.5368 339.5946 15.75209398  5159
STARLINK-36708          
1 67713U 26025W   26062.24691656  .00571415  00000+0  27641-2 0  9998
2 67713  97.2866 173.6220 0001327 127.8035 232.3354 15.81043377  4931
STARLINK-36702          
1 67714U 26025X   26063.26169328  .00248433  00000+0  12546-2 0  9997
2 67714  97.2863 174.6904 0000965 104.4437 255.6939 15.80930004  5099
STARLINK-36718          
1 67715U 26025Y   26063.76195745  .00493298  00000+0  24130-2 0  9998
2 67715  97.2863 175.2354 0002241  35.7462 324.3956 15.81000491  5170
STARLINK-36715          
1 67716U 26025Z   26063.25759127  .00413933  00000+0  20509-2 0  9997
2 67716  97.2853 174.6967 0001564  26.9809 333.1541 15.80922147  5096
STARLINK-36385          
1 67717U 26025AA  26063.26383999  .00285513  00000+0  14347-2 0  9993
2 67717  97.2862 174.6885 0000465  75.5576 284.5743 15.80942452  5090
CZ-2F DEB               
1 67718U 26024E   26058.50732833  .00191604  00000+0  35886-2 0  9997
2 67718  50.3169  68.5830 0246509 240.0171 117.6115 15.20915897  3086
CZ-2F DEB               
1 67719U 26024F   26063.42856040  .00195013  00000+0  46990-2 0  9998
2 67719  49.7925  47.2373 0316605 250.3794 106.2724 15.01983894  3457
CZ-2F DEB               
1 67720U 26024G   26063.40683623  .00186952  00000+0  46336-2 0  9999
2 67720  49.8314  47.8837 0327440 246.4592 110.1638 14.99277874  3766
STARLINK-36772          
1 67721U 26026A   26063.83336806 -.01994514  00000+0 -21545-1 0  9995
2 67721  97.2847 118.2438 0001611  67.0189 323.4528 15.66759013  4531
STARLINK-36796          
1 67722U 26026B   26063.83336806 -.01992489  00000+0 -22293-1 0  9996
2 67722  97.2845 118.2424 0001620  71.6478 315.6918 15.65886666  4537
