[{"OBJECT_NAME":"STARLINK-36645","OBJECT_ID":"2026-025Q","EPOCH":"2026-03-04T18:05:21.876288","MEAN_MOTION":15.75390672,"ECCENTRICITY":0.0002031,"INCLINATION":97.2861,"RA_OF_ASC_NODE":175.0961,"ARG_OF_PERICENTER":63.4012,"MEAN_ANOMALY":296.7461,"EPHEMERIS_TYPE":0,"CLASSIFICATION_TYPE":"U","NORAD_CAT_ID":67707,"ELEMENT_SET_NO":999,"REV_AT_EPOCH":516,"BSTAR":0.0037824,"MEAN_MOTION_DOT":0.00611644,"MEAN_MOTION_DDOT":0},{"OBJECT_NAME":"STARLINK-36287","OBJECT_ID":"2026-025R","EPOCH":"2026-03-04T18:46:05.023776","MEAN_MOTION":15.78941731,"ECCENTRICITY":0.0005682,"INCLINATION":97.2855,"RA_OF_ASC_NODE":175.2108,"ARG_OF_PERICENTER":178.6058,"MEAN_ANOMALY":181.5226,"EPHEMERIS_TYPE":0,"CLASSIFICATION_TYPE":"U","NORAD_CAT_ID":67708,"ELEMENT_SET_NO":999,"REV_AT_EPOCH":518,"BSTAR":-0.0047459,"MEAN_MOTION_DOT":-0.00766897,"MEAN_MOTION_DDOT":0},{"OBJECT_NAME":"STARLINK-36698","OBJECT_ID":"2026-025S","EPOCH":"2026-03-04T17:04:30.957888","MEAN_MOTION":15.80145142,"ECCENTRICITY":0.0002947,"INCLINATION":97.2854,"RA_OF_ASC_NODE":175.1529,"ARG_OF_PERICENTER":57.7017,"MEAN_ANOMALY":302.4536,"EPHEMERIS_TYPE":0,"CLASSIFICATION_TYPE":"U","NORAD_CAT_ID":67709,"ELEMENT_SET_NO":999,"REV_AT_EPOCH":516,"BSTAR":-0.00175,"MEAN_MOTION_DOT":-0.00313975,"MEAN_MOTION_DDOT":0},{"OBJECT_NAME":"STARLINK-36344","OBJECT_ID":"2026-025T","EPOCH":"2026-03-04T20:00:03.000384","MEAN_MOTION":15.75170455,"ECCENTRICITY":0.0001308,"INCLINATION":97.2856,"RA_OF_ASC_NODE":175.2465,"ARG_OF_PERICENTER":109.5426,"MEAN_ANOMALY":139.9181,"EPHEMERIS_TYPE":0,"CLASSIFICATION_TYPE":"U","NORAD_CAT_ID":67710,"ELEMENT_SET_NO":999,"REV_AT_EPOCH":523,"BSTAR":0.00044134,"MEAN_MOTION_DOT":0.00066154,"MEAN_MOTION_DDOT":0},{"OBJECT_NAME":"STARLINK-36687","OBJECT_ID":"2026-025U","EPOCH":"2026-03-04T06:29:35.601216","MEAN_MOTION":15.80954168,"ECCENTRICITY":0.00010796,"INCLINATION":97.2852,"RA_OF_ASC_NODE":174.6803,"ARG_OF_PERICENTER":86.8013,"MEAN_ANOMALY":273.3379,"EPHEMERIS_TYPE":0,"CLASSIFICATION_TYPE":"U","NORAD_CAT_ID":67711,"ELEMENT_SET_NO":999,"REV_AT_EPOCH":510,"BSTAR":0.0015305428,"MEAN_MOTION_DOT":0.00305453,"MEAN_MOTION_DDOT":0},{"OBJECT_NAME":"STARLINK-36705","OBJECT_ID":"2026-025V","EPOCH":"2026-03-04T16:05:24.591264","MEAN_MOTION":15.75209398,"ECCENTRICITY":0.0001209,"INCLINATION":97.2864,"RA_OF_ASC_NODE":175.0514,"ARG_OF_PERICENTER":20.5368,"MEAN_ANOMALY":339.5946,"EPHEMERIS_TYPE":0,"CLASSIFICATION_TYPE":"U","NORAD_CAT_ID":67712,"ELEMENT_SET_NO":999,"REV_AT_EPOCH":515,"BSTAR":0.0014619,"MEAN_MOTION_DOT":0.0022393,"MEAN_MOTION_DDOT":0},{"OBJECT_NAME":"STARLINK-36708","OBJECT_ID":"2026-025W","EPOCH":"2026-03-03T05:55:33.590784","MEAN_MOTION":15.81043377,"ECCENTRICITY":0.00013277,"INCLINATION":97.2866,"RA_OF_ASC_NODE":173.622,"ARG_OF_PERICENTER":127.8035,"MEAN_ANOMALY":232.3354,"EPHEMERIS_TYPE":0,"CLASSIFICATION_TYPE":"U","NORAD_CAT_ID":67713,"ELEMENT_SET_NO":999,"REV_AT_EPOCH":493,"BSTAR":0.002764055,"MEAN_MOTION_DOT":0.00571415,"MEAN_MOTION_DDOT":0},{"OBJECT_NAME":"STARLINK-36702","OBJECT_ID":"2026-025X","EPOCH":"2026-03-04T06:16:50.299392","MEAN_MOTION":15.80930004,"ECCENTRICITY":9.654e-5,"INCLINATION":97.2863,"RA_OF_ASC_NODE":174.6904,"ARG_OF_PERICENTER":104.4437,"MEAN_ANOMALY":255.6939,"EPHEMERIS_TYPE":0,"CLASSIFICATION_TYPE":"U","NORAD_CAT_ID":67714,"ELEMENT_SET_NO":999,"REV_AT_EPOCH":509,"BSTAR":0.0012545947,"MEAN_MOTION_DOT":0.00248433,"MEAN_MOTION_DDOT":0},{"OBJECT_NAME":"STARLINK-36718","OBJECT_ID":"2026-025Y","EPOCH":"2026-03-04T18:17:13.123680","MEAN_MOTION":15.81000491,"ECCENTRICITY":0.0002241,"INCLINATION":97.2863,"RA_OF_ASC_NODE":175.2354,"ARG_OF_PERICENTER":35.7462,"MEAN_ANOMALY":324.3956,"EPHEMERIS_TYPE":0,"CLASSIFICATION_TYPE":"U","NORAD_CAT_ID":67715,"ELEMENT_SET_NO":999,"REV_AT_EPOCH":517,"BSTAR":0.002413,"MEAN_MOTION_DOT":0.00493298,"MEAN_MOTION_DDOT":0},{"OBJECT_NAME":"STARLINK-36715","OBJECT_ID":"2026-025Z","EPOCH":"2026-03-04T06:10:55.885728","MEAN_MOTION":15.80922147,"ECCENTRICITY":0.00015646,"INCLINATION":97.2853,"RA_OF_ASC_NODE":174.6967,"ARG_OF_PERICENTER":26.9809,"MEAN_ANOMALY":333.1541,"EPHEMERIS_TYPE":0,"CLASSIFICATION_TYPE":"U","NORAD_CAT_ID":67716,"ELEMENT_SET_NO":999,"REV_AT_EPOCH":509,"BSTAR":0.0020509051,"MEAN_MOTION_DOT":0.00413933,"MEAN_MOTION_DDOT":0},{"OBJECT_NAME":"STARLINK-36385","OBJECT_ID":"2026-025AA","EPOCH":"2026-03-04T06:19:55.775136","MEAN_MOTION":15.80942452,"ECCENTRICITY":4.654e-5,"INCLINATION":97.2862,"RA_OF_ASC_NODE":174.6885,"ARG_OF_PERICENTER":75.5576,"MEAN_ANOMALY":284.5743,"EPHEMERIS_TYPE":0,"CLASSIFICATION_TYPE":"U","NORAD_CAT_ID":67717,"ELEMENT_SET_NO":999,"REV_AT_EPOCH":509,"BSTAR":0.001434707,"MEAN_MOTION_DOT":0.00285513,"MEAN_MOTION_DDOT":0},{"OBJECT_NAME":"CZ-2F DEB","OBJECT_ID":"2026-024E","EPOCH":"2026-02-27T12:10:33.167712","MEAN_MOTION":15.20915897,"ECCENTRICITY":0.02465096,"INCLINATION":50.3169,"RA_OF_ASC_NODE":68.583,"ARG_OF_PERICENTER":240.0171,"MEAN_ANOMALY":117.6115,"EPHEMERIS_TYPE":0,"CLASSIFICATION_TYPE":"U","NORAD_CAT_ID":67718,"ELEMENT_SET_NO":999,"REV_AT_EPOCH":308,"BSTAR":0.0035886422,"MEAN_MOTION_DOT":0.00191604,"MEAN_MOTION_DDOT":0},{"OBJECT_NAME":"CZ-2F DEB","OBJECT_ID":"2026-024F","EPOCH":"2026-03-04T10:17:07.618560","MEAN_MOTION":15.01983894,"ECCENTRICITY":0.03166052,"INCLINATION":49.7925,"RA_OF_ASC_NODE":47.2373,"ARG_OF_PERICENTER":250.3794,"MEAN_ANOMALY":106.2724,"EPHEMERIS_TYPE":0,"CLASSIFICATION_TYPE":"U","NORAD_CAT_ID":67719,"ELEMENT_SET_NO":999,"REV_AT_EPOCH":345,"BSTAR":0.0046990167,"MEAN_MOTION_DOT":0.00195013,"MEAN_MOTION_DDOT":0},{"OBJECT_NAME":"CZ-2F DEB","OBJECT_ID":"2026-024G","EPOCH":"2026-03-04T09:45:50.650272","MEAN_MOTION":14.99277874,"ECCENTRICITY":0.03274402,"INCLINATION":49.8314,"RA_OF_ASC_NODE":47.8837,"ARG_OF_PERICENTER":246.4592,"MEAN_ANOMALY":110.1638,"EPHEMERIS_TYPE":0,"CLASSIFICATION_TYPE":"U","NORAD_CAT_ID":67720,"ELEMENT_SET_NO":999,"REV_AT_EPOCH":376,"BSTAR":0.0046336437,"MEAN_MOTION_DOT":0.00186952,"MEAN_MOTION_DDOT":0},{"OBJECT_NAME":"STARLINK-36772","OBJECT_ID":"2026-026A","EPOCH":"2026-03-04T20:00:03.000384","MEAN_MOTION":15.66759013,"ECCENTRICITY":0.0001611,"INCLINATION":97.2847,"RA_OF_ASC_NODE":118.2438,"ARG_OF_PERICENTER":67.0189,"MEAN_ANOMALY":323.4528,"EPHEMERIS_TYPE":0,"CLASSIFICATION_TYPE":"U","NORAD_CAT_ID":67721,"ELEMENT_SET_NO":999,"REV_AT_EPOCH":453,"BSTAR":-0.021545,"MEAN_MOTION_DOT":-0.01994514,"MEAN_MOTION_DDOT":0},{"OBJECT_NAME":"STARLINK-36796","OBJECT_ID":"2026-026B","EPOCH":"2026-03-04T20:00:03.000384","MEAN_MOTION":15.65886666,"ECCENTRICITY":0.000162,"INCLINATION":97.2845,"RA_OF_ASC_NODE":118.2424,"ARG_OF_PERICENTER":71.6478,"MEAN_ANOMALY":315.6918,"EPHEMERIS_TYPE":0,"CLASSIFICATION_TYPE":"U","NORAD_CAT_ID":67722,"ELEMENT_SET_NO":999,"REV_AT_EPOCH":453,"BSTAR":-0.022293,"MEAN_MOTION_DOT":-0.01992489,"MEAN_MOTION_DDOT":0}]
